*******************************************************************************
 Revised: Mar 07, 2021            Euporie / (Jupiter)                       534
  
 Jovian irregular satellite.
*******************************************************************************


*******************************************************************************
Ephemeris / WWW_USER Sun Jun 19 05:11:00 2022 Pasadena, USA      / Horizons    
*******************************************************************************
Target body name: Euporie (534)                   {source: jup344_merged}
Center body name: Earth-Moon Barycenter (3)       {source: DE441}
Center-site name: BODYCENTRIC
*******************************************************************************
Start time      : A.D. 2022-Jun-16 00:00:00.0000 UT      
Stop  time      : A.D. 2022-Jul-16 00:00:00.0000 UT      
Step-size       : 1440 minutes
*******************************************************************************
Target pole/equ : No model available
Target radii    : (unavailable)                                                
Center geodetic : 0.00000000,0.00000000,0.0000000 {E-lon(deg),Lat(deg),Alt(km)}
Center cylindric: 0.00000000,0.00000000,0.0000000 {E-lon(deg),Dxy(km),Dz(km)}
Center pole/equ : ICRF
Center radii    : (undefined)                                                  
Target primary  : Jupiter
Vis. interferer : None
Rel. light bend : Sun, EARTH                      {source: DE441}
Rel. lght bnd GM: 1.3271E+11, 3.9860E+05 km^3/s^2                              
Atmos refraction: NO (AIRLESS)
RA format       : HMS
Time format     : CAL 
EOP file        : eop.220617.p220909                                           
EOP coverage    : DATA-BASED 1962-JAN-20 TO 2022-JUN-17. PREDICTS-> 2022-SEP-08
Units conversion: 1 au= 149597870.700 km, c= 299792.458 km/s, 1 day= 86400.0 s 
Table cut-offs 1: Elevation (-90.0deg=NO ),Airmass     n.a.    , Daylight (NO )
Table cut-offs 2: Solar elongation (  0.0,180.0=NO ),Local Hour Angle( 0.0=NO )
Table cut-offs 3: RA/DEC angular rate (     0.0=NO )                           
******************************************************************************************************************************************************************************
 Date__(UT)__HR:MN     R.A._____(ICRF)_____DEC    APmag   S-brt             delta      deldot     S-O-T /r     S-T-O  Sky_motion  Sky_mot_PA  RelVel-ANG  Lun_Sky_Brt  sky_SNR
******************************************************************************************************************************************************************************
$$SOE
 2022-Jun-16 00:00     00 17 19.44 +00 23 49.4     n.a.    n.a.  5.08943548465398 -28.5811269   80.4224 /T   11.5078   0.2923122   73.577363   -57.82232         n.a.     n.a.
 2022-Jun-17 00:00     00 17 46.12 +00 25 46.7     n.a.    n.a.  5.07290803138369 -28.6510696   81.2621 /T   11.5396   0.2867791   73.757199   -58.45948         n.a.     n.a.
 2022-Jun-18 00:00     00 18 12.31 +00 27 40.4     n.a.    n.a.  5.05634192444606 -28.7149733   82.1038 /T   11.5689   0.2811816   73.945285   -59.09970         n.a.     n.a.
 2022-Jun-19 00:00     00 18 38.01 +00 29 30.6     n.a.    n.a.  5.03974066539542 -28.7727904   82.9477 /T   11.5957   0.2755200   74.142223   -59.74308         n.a.     n.a.
 2022-Jun-20 00:00     00 19 03.20 +00 31 17.3     n.a.    n.a.  5.02310778315650 -28.8244736   83.7938 /T   11.6200   0.2697946   74.348675   -60.38969         n.a.     n.a.
 2022-Jun-21 00:00     00 19 27.89 +00 33 00.3     n.a.    n.a.  5.00644683395595 -28.8699758   84.6420 /T   11.6417   0.2640059   74.565373   -61.03962         n.a.     n.a.
 2022-Jun-22 00:00     00 19 52.07 +00 34 39.6     n.a.    n.a.  4.98976140124503 -28.9092499   85.4925 /T   11.6609   0.2581542   74.793127   -61.69294         n.a.     n.a.
 2022-Jun-23 00:00     00 20 15.73 +00 36 15.3     n.a.    n.a.  4.97305509564093 -28.9422488   86.3452 /T   11.6774   0.2522401   75.032833   -62.34973         n.a.     n.a.
 2022-Jun-24 00:00     00 20 38.86 +00 37 47.2     n.a.    n.a.  4.95633155484628 -28.9689258   87.2002 /T   11.6914   0.2462643   75.285492   -63.01006         n.a.     n.a.
 2022-Jun-25 00:00     00 21 01.46 +00 39 15.4     n.a.    n.a.  4.93959444352753 -28.9892342   88.0575 /T   11.7026   0.2402275   75.552215   -63.67401         n.a.     n.a.
 2022-Jun-26 00:00     00 21 23.53 +00 40 39.9     n.a.    n.a.  4.92284745322755 -29.0031277   88.9172 /T   11.7112   0.2341306   75.834248   -64.34165         n.a.     n.a.
 2022-Jun-27 00:00     00 21 45.06 +00 42 00.5     n.a.    n.a.  4.90609430223833 -29.0105600   89.7793 /T   11.7171   0.2279743   76.132988   -65.01304         n.a.     n.a.
 2022-Jun-28 00:00     00 22 06.03 +00 43 17.2     n.a.    n.a.  4.88933873544184 -29.0114852   90.6438 /T   11.7203   0.2217598   76.450006   -65.68824         n.a.     n.a.
 2022-Jun-29 00:00     00 22 26.45 +00 44 30.1     n.a.    n.a.  4.87258452414185 -29.0058578   91.5108 /T   11.7207   0.2154882   76.787077   -66.36730         n.a.     n.a.
 2022-Jun-30 00:00     00 22 46.32 +00 45 39.1     n.a.    n.a.  4.85583546588851 -28.9936325   92.3803 /T   11.7183   0.2091609   77.146213   -67.05028         n.a.     n.a.
 2022-Jul-01 00:00     00 23 05.61 +00 46 44.1     n.a.    n.a.  4.83909538427645 -28.9747643   93.2523 /T   11.7131   0.2027793   77.529701   -67.73720         n.a.     n.a.
 2022-Jul-02 00:00     00 23 24.34 +00 47 45.2     n.a.    n.a.  4.82236812869995 -28.9492089   94.1269 /T   11.7050   0.1963451   77.940155   -68.42809         n.a.     n.a.
 2022-Jul-03 00:00     00 23 42.48 +00 48 42.3     n.a.    n.a.  4.80565757412015 -28.9169221   95.0041 /T   11.6941   0.1898602   78.380573   -69.12296         n.a.     n.a.
 2022-Jul-04 00:00     00 24 00.05 +00 49 35.3     n.a.    n.a.  4.78896762080563 -28.8778603   95.8839 /T   11.6803   0.1833266   78.854407   -69.82181         n.a.     n.a.
 2022-Jul-05 00:00     00 24 17.02 +00 50 24.3     n.a.    n.a.  4.77230219401652 -28.8319807   96.7664 /T   11.6636   0.1767468   79.365656   -70.52461         n.a.     n.a.
 2022-Jul-06 00:00     00 24 33.41 +00 51 09.3     n.a.    n.a.  4.75566524367139 -28.7792408   97.6516 /T   11.6440   0.1701234   79.918974   -71.23130         n.a.     n.a.
 2022-Jul-07 00:00     00 24 49.19 +00 51 50.1     n.a.    n.a.  4.73906074398843 -28.7195988   98.5395 /T   11.6214   0.1634595   80.519803   -71.94180         n.a.     n.a.
 2022-Jul-08 00:00     00 25 04.37 +00 52 26.8     n.a.    n.a.  4.72249269308514 -28.6530138   99.4302 /T   11.5958   0.1567586   81.174550   -72.65598         n.a.     n.a.
 2022-Jul-09 00:00     00 25 18.93 +00 52 59.4     n.a.    n.a.  4.70596511253916 -28.5794455  100.3237 /T   11.5672   0.1500248   81.890799   -73.37367         n.a.     n.a.
 2022-Jul-10 00:00     00 25 32.89 +00 53 27.7     n.a.    n.a.  4.68948204692847 -28.4988545  101.2200 /T   11.5356   0.1432628   82.677587   -74.09463         n.a.     n.a.
 2022-Jul-11 00:00     00 25 46.22 +00 53 51.9     n.a.    n.a.  4.67304756335771 -28.4112023  102.1191 /T   11.5010   0.1364779   83.545760   -74.81855         n.a.     n.a.
 2022-Jul-12 00:00     00 25 58.93 +00 54 11.9     n.a.    n.a.  4.65666575090235 -28.3164513  103.0212 /T   11.4632   0.1296766   84.508427   -75.54500         n.a.     n.a.
 2022-Jul-13 00:00     00 26 11.01 +00 54 27.7     n.a.    n.a.  4.64034072003157 -28.2145649  103.9261 /T   11.4224   0.1228666   85.581556   -76.27343         n.a.     n.a.
 2022-Jul-14 00:00     00 26 22.45 +00 54 39.2     n.a.    n.a.  4.62407660200336 -28.1055078  104.8340 /T   11.3785   0.1160570   86.784759   -77.00312         n.a.     n.a.
 2022-Jul-15 00:00     00 26 33.26 +00 54 46.4     n.a.    n.a.  4.60787754819790 -27.9892458  105.7449 /T   11.3315   0.1092591   88.142319   -77.73313         n.a.     n.a.
 2022-Jul-16 00:00     00 26 43.42 +00 54 49.4     n.a.    n.a.  4.59174772940325 -27.8657457  106.6587 /T   11.2813   0.1024867   89.684570   -78.46222         n.a.     n.a.
